[{"OBJECT_NAME":"NUSAT-48 (HENRIETTA LEAVITT)","OBJECT_ID":"2024-149AG","EPOCH":"2026-03-09T19:19:17.269536","MEAN_MOTION":15.29812597,"ECCENTRICITY":0.00027538,"INCLINATION":97.3923,"RA_OF_ASC_NODE":150.8264,"ARG_OF_PERICENTER":263.3026,"MEAN_ANOMALY":96.7901,"EPHEMERIS_TYPE":0,"CLASSIFICATION_TYPE":"U","NORAD_CAT_ID":60498,"ELEMENT_SET_NO":999,"REV_AT_EPOCH":8694,"BSTAR":0.00045211745,"MEAN_MOTION_DOT":0.00012988,"MEAN_MOTION_DDOT":0},{"OBJECT_NAME":"STARLINK-34204","OBJECT_ID":"2025-244H","EPOCH":"2026-03-09T21:09:45.993312","MEAN_MOTION":15.3017075,"ECCENTRICITY":8.612e-5,"INCLINATION":53.1576,"RA_OF_ASC_NODE":228.6865,"ARG_OF_PERICENTER":108.7651,"MEAN_ANOMALY":251.3444,"EPHEMERIS_TYPE":0,"CLASSIFICATION_TYPE":"U","NORAD_CAT_ID":66213,"ELEMENT_SET_NO":999,"REV_AT_EPOCH":2169,"BSTAR":0.0012331494,"MEAN_MOTION_DOT":0.00036309,"MEAN_MOTION_DDOT":0}]
